start=new Date('2022-04-02T00:00:00.000Z').valueOf();
sats=[{"REF_FRAME":"TEME","APOAPSIS":"548.103","RCS_SIZE":"LARGE","ELEMENT_SET_NO":"999","DECAY_DATE":null,"MEAN_MOTION_DOT":"0.00002071","PERIAPSIS":"546.336","RA_OF_ASC_NODE":"41.5111","EPOCH":"2022-04-01T19:28:51.212640","REV_AT_EPOCH":"10200","ECCENTRICITY":"0.00012760","EPHEMERIS_TYPE":"0","ARG_OF_PERICENTER":"88.3679","MEAN_MOTION_DDOT":"0.0000000000000","SITE":"AFETR","GP_ID":"200260960","OBJECT_NAME":"STARLINK-1442","CLASSIFICATION_TYPE":"U","MEAN_ANOMALY":"271.7456","SEMIMAJOR_AXIS":"6925.355","TLE_LINE2":"2 45659  53.0575  41.5111 0001276  88.3679 271.7456 15.06397977102005","LAUNCH_DATE":"2020-06-04","TLE_LINE1":"1 45659U 20035C   22091.81170385  .00002071  00000-0  15792-3 0  9993","CENTER_NAME":"EARTH","MEAN_MOTION":"15.06397977","TIME_SYSTEM":"UTC","PERIOD":"95.592","OBJECT_TYPE":"PAYLOAD","FILE":"3383778","OBJECT_ID":"2020-035C","NORAD_CAT_ID":"45659","COUNTRY_CODE":"US","BSTAR":"0.00015792000000","MEAN_ELEMENT_THEORY":"SGP4","INCLINATION":"53.0575"},{"ECCENTRICITY":"0.00018210","EPHEMERIS_TYPE":"0","ARG_OF_PERICENTER":"50.8063","RA_OF_ASC_NODE":"42.6630","EPOCH":"2022-04-01T13:18:39.537792","REV_AT_EPOCH":"10197","MEAN_MOTION_DOT":"0.00005873","PERIAPSIS":"545.909","GP_ID":"200228415","OBJECT_NAME":"STARLINK-1443","SITE":"AFETR","MEAN_MOTION_DDOT":"0.0000000000000","APOAPSIS":"548.431","REF_FRAME":"TEME","DECAY_DATE":null,"RCS_SIZE":"LARGE","ELEMENT_SET_NO":"999","NORAD_CAT_ID":"45660","OBJECT_ID":"2020-035D","OBJECT_TYPE":"PAYLOAD","FILE":"3383353","PERIOD":"95.591","INCLINATION":"53.0552","MEAN_ELEMENT_THEORY":"SGP4","BSTAR":"0.00041267000000","COUNTRY_CODE":"US","SEMIMAJOR_AXIS":"6925.305","MEAN_ANOMALY":"309.3088","CLASSIFICATION_TYPE":"U","MEAN_MOTION":"15.06414324","CENTER_NAME":"EARTH","TIME_SYSTEM":"UTC","LAUNCH_DATE":"2020-06-04","TLE_LINE1":"1 45660U 20035D   22091.55462428  .00005873  00000-0  41267-3 0  9997","TLE_LINE2":"2 45660  53.0552  42.6630 0001821  50.8063 309.3088 15.06414324101977"},{"TLE_LINE2":"2 45661  53.0559  42.5702 0001519  65.7617 294.3530 15.06416689101979","MEAN_MOTION":"15.06416689","CENTER_NAME":"EARTH","TIME_SYSTEM":"UTC","LAUNCH_DATE":"2020-06-04","TLE_LINE1":"1 45661U 20035E   22091.57305543  .00006024  00000-0  42280-3 0  9999","MEAN_ANOMALY":"294.3530","CLASSIFICATION_TYPE":"U","SEMIMAJOR_AXIS":"6925.297","MEAN_ELEMENT_THEORY":"SGP4","COUNTRY_CODE":"US","BSTAR":"0.00042280000000","INCLINATION":"53.0559","OBJECT_TYPE":"PAYLOAD","FILE":"3383353","PERIOD":"95.591","NORAD_CAT_ID":"45661","OBJECT_ID":"2020-035E","DECAY_DATE":null,"RCS_SIZE":"LARGE","ELEMENT_SET_NO":"999","REF_FRAME":"TEME","APOAPSIS":"548.214","SITE":"AFETR","MEAN_MOTION_DDOT":"0.0000000000000","GP_ID":"200227178","OBJECT_NAME":"STARLINK-1444","PERIAPSIS":"546.110","MEAN_MOTION_DOT":"0.00006024","ECCENTRICITY":"0.00015190","EPHEMERIS_TYPE":"0","ARG_OF_PERICENTER":"65.7617","EPOCH":"2022-04-01T13:45:11.989152","RA_OF_ASC_NODE":"42.5702","REV_AT_EPOCH":"10197"},{"MEAN_MOTION_DOT":"0.00007373","PERIAPSIS":"546.197","EPHEMERIS_TYPE":"0","ECCENTRICITY":"0.00013850","ARG_OF_PERICENTER":"59.1921","RA_OF_ASC_NODE":"42.4975","EPOCH":"2022-04-01T14:06:25.983936","REV_AT_EPOCH":"10197","SITE":"AFETR","MEAN_MOTION_DDOT":"0.0000000000000","OBJECT_NAME":"STARLINK-1445","GP_ID":"200260711","REF_FRAME":"TEME","APOAPSIS":"548.115","DECAY_DATE":null,"RCS_SIZE":"LARGE","ELEMENT_SET_NO":"999","OBJECT_TYPE":"PAYLOAD","FILE":"3383778","PERIOD":"95.591","OBJECT_ID":"2020-035F","NORAD_CAT_ID":"45662","MEAN_ELEMENT_THEORY":"SGP4","COUNTRY_CODE":"US","BSTAR":"0.00051309000000","INCLINATION":"53.0540","MEAN_ANOMALY":"300.9205","CLASSIFICATION_TYPE":"U","SEMIMAJOR_AXIS":"6925.291","TLE_LINE2":"2 45662  53.0540  42.4975 0001385  59.1921 300.9205 15.06418842101973","MEAN_MOTION":"15.06418842","CENTER_NAME":"EARTH","TIME_SYSTEM":"UTC","LAUNCH_DATE":"2020-06-04","TLE_LINE1":"1 45662U 20035F   22091.58780074  .00007373  00000-0  51309-3 0  9997"},{"GP_ID":"200261461","OBJECT_NAME":"STARLINK-1446","SITE":"AFETR","MEAN_MOTION_DDOT":"0.0000000000000","ARG_OF_PERICENTER":"53.7700","EPHEMERIS_TYPE":"0","ECCENTRICITY":"0.00016010","REV_AT_EPOCH":"10200","RA_OF_ASC_NODE":"41.5911","EPOCH":"2022-04-01T18:58:21.289152","MEAN_MOTION_DOT":"0.00005742","PERIAPSIS":"546.043","DECAY_DATE":null,"ELEMENT_SET_NO":"999","RCS_SIZE":"LARGE","APOAPSIS":"548.260","REF_FRAME":"TEME","INCLINATION":"53.0542","MEAN_ELEMENT_THEORY":"SGP4","COUNTRY_CODE":"US","BSTAR":"0.00040382000000","NORAD_CAT_ID":"45663","OBJECT_ID":"2020-035G","FILE":"3383778","OBJECT_TYPE":"PAYLOAD","PERIOD":"95.591","TIME_SYSTEM":"UTC","MEAN_MOTION":"15.06420315","CENTER_NAME":"EARTH","TLE_LINE1":"1 45663U 20035G   22091.79052418  .00005742  00000-0  40382-3 0  9992","LAUNCH_DATE":"2020-06-04","TLE_LINE2":"2 45663  53.0542  41.5911 0001601  53.7700 306.3436 15.06420315102001","SEMIMAJOR_AXIS":"6925.286","MEAN_ANOMALY":"306.3436","CLASSIFICATION_TYPE":"U"},{"INCLINATION":"53.0542","MEAN_ELEMENT_THEORY":"SGP4","BSTAR":"0.00016546000000","COUNTRY_CODE":"US","NORAD_CAT_ID":"45665","OBJECT_ID":"2020-035J","OBJECT_TYPE":"PAYLOAD","FILE":"3383778","PERIOD":"95.592","MEAN_MOTION":"15.06408363","CENTER_NAME":"EARTH","TIME_SYSTEM":"UTC","LAUNCH_DATE":"2020-06-04","TLE_LINE1":"1 45665U 20035J   22091.82369806  .00002184  00000-0  16546-3 0  9992","TLE_LINE2":"2 45665  53.0542  41.4364 0001457  64.7015 295.4125 15.06408363102006","SEMIMAJOR_AXIS":"6925.323","MEAN_ANOMALY":"295.4125","CLASSIFICATION_TYPE":"U","OBJECT_NAME":"STARLINK-1448","GP_ID":"200261713","SITE":"AFETR","MEAN_MOTION_DDOT":"0.0000000000000","ECCENTRICITY":"0.00014570","EPHEMERIS_TYPE":"0","ARG_OF_PERICENTER":"64.7015","RA_OF_ASC_NODE":"41.4364","EPOCH":"2022-04-01T19:46:07.512384","REV_AT_EPOCH":"10200","MEAN_MOTION_DOT":"0.00002184","PERIAPSIS":"546.179","DECAY_DATE":null,"RCS_SIZE":"LARGE","ELEMENT_SET_NO":"999","APOAPSIS":"548.197","REF_FRAME":"TEME"},{"MEAN_MOTION":"15.06400108","CENTER_NAME":"EARTH","TIME_SYSTEM":"UTC","LAUNCH_DATE":"2020-06-04","TLE_LINE1":"1 45666U 20035K   22091.23300846  .00003957  00000-0  28440-3 0  9992","TLE_LINE2":"2 45666  53.0547  44.1050 0001627  41.6697 318.4415 15.06400108101919","SEMIMAJOR_AXIS":"6925.348","MEAN_ANOMALY":"318.4415","CLASSIFICATION_TYPE":"U","INCLINATION":"53.0547","MEAN_ELEMENT_THEORY":"SGP4","COUNTRY_CODE":"US","BSTAR":"0.00028440000000","NORAD_CAT_ID":"45666","OBJECT_ID":"2020-035K","OBJECT_TYPE":"PAYLOAD","FILE":"3383353","PERIOD":"95.592","DECAY_DATE":null,"RCS_SIZE":"LARGE","ELEMENT_SET_NO":"999","APOAPSIS":"548.340","REF_FRAME":"TEME","OBJECT_NAME":"STARLINK-1449","GP_ID":"200226679","SITE":"AFETR","MEAN_MOTION_DDOT":"0.0000000000000","EPHEMERIS_TYPE":"0","ECCENTRICITY":"0.00016270","ARG_OF_PERICENTER":"41.6697","RA_OF_ASC_NODE":"44.1050","EPOCH":"2022-04-01T05:35:31.930944","REV_AT_EPOCH":"10191","PERIAPSIS":"546.086","MEAN_MOTION_DOT":"0.00003957"},{"MEAN_MOTION_DOT":"0.00002287","PERIAPSIS":"546.270","EPHEMERIS_TYPE":"0","ECCENTRICITY":"0.00012980","ARG_OF_PERICENTER":"58.5900","EPOCH":"2022-04-01T16:40:20.825472","RA_OF_ASC_NODE":"42.0191","REV_AT_EPOCH":"10198","SITE":"AFETR","MEAN_MOTION_DDOT":"0.0000000000000","OBJECT_NAME":"STARLINK-1450","GP_ID":"200261212","REF_FRAME":"TEME","APOAPSIS":"548.068","DECAY_DATE":null,"RCS_SIZE":"LARGE","ELEMENT_SET_NO":"999","OBJECT_TYPE":"PAYLOAD","FILE":"3383778","PERIOD":"95.591","NORAD_CAT_ID":"45667","OBJECT_ID":"2020-035L","MEAN_ELEMENT_THEORY":"SGP4","BSTAR":"0.00017233000000","COUNTRY_CODE":"US","INCLINATION":"53.0555","MEAN_ANOMALY":"301.5215","CLASSIFICATION_TYPE":"U","SEMIMAJOR_AXIS":"6925.304","TLE_LINE2":"2 45667  53.0555  42.0191 0001298  58.5900 301.5215 15.06414535101987","MEAN_MOTION":"15.06414535","CENTER_NAME":"EARTH","TIME_SYSTEM":"UTC","LAUNCH_DATE":"2020-06-04","TLE_LINE1":"1 45667U 20035L   22091.69468548  .00002287  00000-0  17233-3 0  9990"},{"REF_FRAME":"TEME","APOAPSIS":"548.202","DECAY_DATE":null,"RCS_SIZE":"LARGE","ELEMENT_SET_NO":"999","MEAN_MOTION_DOT":"0.00010194","PERIAPSIS":"545.990","ECCENTRICITY":"0.00015970","EPHEMERIS_TYPE":"0","ARG_OF_PERICENTER":"56.2512","EPOCH":"2022-04-01T20:43:07.779936","RA_OF_ASC_NODE":"41.2629","REV_AT_EPOCH":"10202","SITE":"AFETR","MEAN_MOTION_DDOT":"0.0000000000000","OBJECT_NAME":"STARLINK-1451","GP_ID":"200260961","MEAN_ANOMALY":"303.8629","CLASSIFICATION_TYPE":"U","SEMIMAJOR_AXIS":"6925.231","TLE_LINE2":"2 45668  53.0587  41.2629 0001597  56.2512 303.8629 15.06438494102026","MEAN_MOTION":"15.06438494","CENTER_NAME":"EARTH","TIME_SYSTEM":"UTC","LAUNCH_DATE":"2020-06-04","TLE_LINE1":"1 45668U 20035M   22091.86328449  .00010194  00000-0  70151-3 0  9999","OBJECT_TYPE":"PAYLOAD","FILE":"3383778","PERIOD":"95.590","NORAD_CAT_ID":"45668","OBJECT_ID":"2020-035M","MEAN_ELEMENT_THEORY":"SGP4","BSTAR":"0.00070151000000","COUNTRY_CODE":"US","INCLINATION":"53.0587"},{"ELEMENT_SET_NO":"999","RCS_SIZE":"LARGE","DECAY_DATE":null,"APOAPSIS":"548.272","REF_FRAME":"TEME","GP_ID":"200228416","OBJECT_NAME":"STARLINK-1452","MEAN_MOTION_DDOT":"0.0000000000000","SITE":"AFETR","REV_AT_EPOCH":"10197","RA_OF_ASC_NODE":"42.5365","EPOCH":"2022-04-01T13:55:48.897120","ARG_OF_PERICENTER":"51.2246","EPHEMERIS_TYPE":"0","ECCENTRICITY":"0.00016250","MEAN_MOTION_DOT":"0.00008279","PERIAPSIS":"546.021","TLE_LINE1":"1 45669U 20035N   22091.58042705  .00008279  00000-0  57370-3 0  9996","LAUNCH_DATE":"2020-06-04","TIME_SYSTEM":"UTC","MEAN_MOTION":"15.06421961","CENTER_NAME":"EARTH","TLE_LINE2":"2 45669  53.0546  42.5365 0001625  51.2246 308.8888 15.06421961101970","SEMIMAJOR_AXIS":"6925.281","CLASSIFICATION_TYPE":"U","MEAN_ANOMALY":"308.8888","INCLINATION":"53.0546","BSTAR":"0.00057370000000","COUNTRY_CODE":"US","MEAN_ELEMENT_THEORY":"SGP4","OBJECT_ID":"2020-035N","NORAD_CAT_ID":"45669","PERIOD":"95.591","FILE":"3383353","OBJECT_TYPE":"PAYLOAD"}];
